{
  "type": "FeatureCollection",
  "features": [
    {
      "type": "Feature",
      "properties": {
        "norad_id": 33412,
        "name": "COSMO-SKYMED 3",
        "group": "resource",
        "lat": -31.304118633518335,
        "lon": 22.968620046181456,
        "alt_km": 552.9783509617728,
        "timestamp": "2025-12-23T05:02:11.680265+00:00",
        "meta_object_name": "COSMO-SKYMED 3",
        "meta_object_id": "2008-054A",
        "meta_epoch": "2025-12-22T21:43:13.480896",
        "meta_mean_motion": 15.054433,
        "meta_eccentricity": 0.00171078,
        "meta_inclination": 97.8459,
        "meta_ra_of_asc_node": 207.4689,
        "meta_arg_of_pericenter": 138.3449,
        "meta_mean_anomaly": 221.9083,
        "meta_ephemeris_type": 0,
        "meta_classification_type": "U",
        "meta_norad_cat_id": 33412,
        "meta_element_set_no": 999,
        "meta_rev_at_epoch": 93040,
        "meta_bstar": 0.00041571095,
        "meta_mean_motion_dot": 5.925e-05,
        "meta_mean_motion_ddot": 0,
        "tle_line1": "1 33412U 08054A   25356.90501714  .00005925  00000+0  41571-3 0  9999",
        "tle_line2": "2 33412  97.8459 207.4689 0017107 138.3449 221.9083 15.05443300930407"
      },
      "geometry": {
        "type": "Point",
        "coordinates": [
          22.968620046181456,
          -31.304118633518335
        ]
      }
    },
    {
      "type": "Feature",
      "properties": {
        "norad_id": 33446,
        "name": "YAOGAN-4",
        "group": "resource",
        "lat": 57.26742020958146,
        "lon": -85.30018105728236,
        "alt_km": 621.3659709873818,
        "timestamp": "2025-12-23T05:02:11.680275+00:00",
        "meta_object_name": "YAOGAN-4",
        "meta_object_id": "2008-061A",
        "meta_epoch": "2025-12-22T17:26:15.520992",
        "meta_mean_motion": 14.82709792,
        "meta_eccentricity": 0.00130474,
        "meta_inclination": 97.9196,
        "meta_ra_of_asc_node": 286.7284,
        "meta_arg_of_pericenter": 287.9975,
        "meta_mean_anomaly": 71.9816,
        "meta_ephemeris_type": 0,
        "meta_classification_type": "U",
        "meta_norad_cat_id": 33446,
        "meta_element_set_no": 999,
        "meta_rev_at_epoch": 91951,
        "meta_bstar": 0.00015592238,
        "meta_mean_motion_dot": 1.206e-05,
        "meta_mean_motion_ddot": 0,
        "tle_line1": "1 33446U 08061A   25356.72656853  .00001206  00000+0  15592-3 0  9991",
        "tle_line2": "2 33446  97.9196 286.7284 0013047 287.9975  71.9816 14.82709792919518"
      },
      "geometry": {
        "type": "Point",
        "coordinates": [
          -85.30018105728236,
          57.26742020958146
        ]
      }
    },
    {
      "type": "Feature",
      "properties": {
        "norad_id": 33492,
        "name": "GOSAT (IBUKI)",
        "group": "resource",
        "lat": -77.05703657809254,
        "lon": -112.49592801851905,
        "alt_km": 676.9027419487629,
        "timestamp": "2025-12-23T05:02:11.680286+00:00",
        "meta_object_name": "GOSAT (IBUKI)",
        "meta_object_id": "2009-002A",
        "meta_epoch": "2025-12-22T21:18:38.412576",
        "meta_mean_motion": 14.67544123,
        "meta_eccentricity": 0.00010033,
        "meta_inclination": 98.0771,
        "meta_ra_of_asc_node": 105.3503,
        "meta_arg_of_pericenter": 102.9826,
        "meta_mean_anomaly": 257.1491,
        "meta_ephemeris_type": 0,
        "meta_classification_type": "U",
        "meta_norad_cat_id": 33492,
        "meta_element_set_no": 999,
        "meta_rev_at_epoch": 90560,
        "meta_bstar": 0.00015422711,
        "meta_mean_motion_dot": 8.27e-06,
        "meta_mean_motion_ddot": 0,
        "tle_line1": "1 33492U 09002A   25356.88794459  .00000827  00000+0  15423-3 0  9991",
        "tle_line2": "2 33492  98.0771 105.3503 0001003 102.9826 257.1491 14.67544123905600"
      },
      "geometry": {
        "type": "Point",
        "coordinates": [
          -112.49592801851905,
          -77.05703657809254
        ]
      }
    },
    {
      "type": "Feature",
      "properties": {
        "norad_id": 35681,
        "name": "DEIMOS-1",
        "group": "resource",
        "lat": -74.51526359524227,
        "lon": -51.970914591487464,
        "alt_km": 654.325277959435,
        "timestamp": "2025-12-23T05:02:11.680297+00:00",
        "meta_object_name": "DEIMOS-1",
        "meta_object_id": "2009-041A",
        "meta_epoch": "2025-12-22T22:59:33.720288",
        "meta_mean_motion": 14.74967944,
        "meta_eccentricity": 0.000256,
        "meta_inclination": 97.7151,
        "meta_ra_of_asc_node": 157.086,
        "meta_arg_of_pericenter": 63.691,
        "meta_mean_anomaly": 296.4563,
        "meta_ephemeris_type": 0,
        "meta_classification_type": "U",
        "meta_norad_cat_id": 35681,
        "meta_element_set_no": 999,
        "meta_rev_at_epoch": 88090,
        "meta_bstar": 0.00014227281,
        "meta_mean_motion_dot": 9.09e-06,
        "meta_mean_motion_ddot": 0,
        "tle_line1": "1 35681U 09041A   25356.95802917  .00000909  00000+0  14227-3 0  9995",
        "tle_line2": "2 35681  97.7151 157.0860 0002560  63.6910 296.4563 14.74967944880905"
      },
      "geometry": {
        "type": "Point",
        "coordinates": [
          -51.970914591487464,
          -74.51526359524227
        ]
      }
    },
    {
      "type": "Feature",
      "properties": {
        "norad_id": 35682,
        "name": "DUBAISAT-1",
        "group": "resource",
        "lat": 1.2442874376179476,
        "lon": -52.08962861214148,
        "alt_km": 650.1159366034599,
        "timestamp": "2025-12-23T05:02:11.680307+00:00",
        "meta_object_name": "DUBAISAT-1",
        "meta_object_id": "2009-041B",
        "meta_epoch": "2025-12-22T20:05:08.128896",
        "meta_mean_motion": 14.74629962,
        "meta_eccentricity": 0.00092606,
        "meta_inclination": 97.9798,
        "meta_ra_of_asc_node": 127.3684,
        "meta_arg_of_pericenter": 278.2214,
        "meta_mean_anomaly": 81.7944,
        "meta_ephemeris_type": 0,
        "meta_classification_type": "U",
        "meta_norad_cat_id": 35682,
        "meta_element_set_no": 999,
        "meta_rev_at_epoch": 87910,
        "meta_bstar": 0.00017439106,
        "meta_mean_motion_dot": 1.113e-05,
        "meta_mean_motion_ddot": 0,
        "tle_line1": "1 35682U 09041B   25356.83689964  .00001113  00000+0  17439-3 0  9994",
        "tle_line2": "2 35682  97.9798 127.3684 0009260 278.2214  81.7944 14.74629962879107"
      },
      "geometry": {
        "type": "Point",
        "coordinates": [
          -52.08962861214148,
          1.2442874376179476
        ]
      }
    },
    {
      "type": "Feature",
      "properties": {
        "norad_id": 35931,
        "name": "OCEANSAT-2",
        "group": "resource",
        "lat": 52.828136681182606,
        "lon": -14.24388263797987,
        "alt_km": 880.7460463575499,
        "timestamp": "2025-12-23T05:02:11.680318+00:00",
        "meta_object_name": "OCEANSAT-2",
        "meta_object_id": "2009-051A",
        "meta_epoch": "2025-12-22T23:38:05.773056",
        "meta_mean_motion": 13.99622932,
        "meta_eccentricity": 0.00159544,
        "meta_inclination": 98.2217,
        "meta_ra_of_asc_node": 356.5458,
        "meta_arg_of_pericenter": 18.1567,
        "meta_mean_anomaly": 342.0167,
        "meta_ephemeris_type": 0,
        "meta_classification_type": "U",
        "meta_norad_cat_id": 35931,
        "meta_element_set_no": 999,
        "meta_rev_at_epoch": 85468,
        "meta_bstar": -2.3224169e-05,
        "meta_mean_motion_dot": -7.1e-07,
        "meta_mean_motion_ddot": 0,
        "tle_line1": "1 35931U 09051A   25356.98478904 -.00000071  00000+0 -23224-4 0  9992",
        "tle_line2": "2 35931  98.2217 356.5458 0015954  18.1567 342.0167 13.99622932854680"
      },
      "geometry": {
        "type": "Point",
        "coordinates": [
          -14.24388263797987,
          52.828136681182606
        ]
      }
    },
    {
      "type": "Feature",
      "properties": {
        "norad_id": 35946,
        "name": "WORLDVIEW-2 (WV-2)",
        "group": "resource",
        "lat": 10.390176159569291,
        "lon": -110.28227883855186,
        "alt_km": 769.4606088428582,
        "timestamp": "2025-12-23T05:02:11.680329+00:00",
        "meta_object_name": "WORLDVIEW-2 (WV-2)",
        "meta_object_id": "2009-055A",
        "meta_epoch": "2025-12-22T21:34:14.215296",
        "meta_mean_motion": 14.37728388,
        "meta_eccentricity": 0.00048176,
        "meta_inclination": 98.4775,
        "meta_ra_of_asc_node": 67.8439,
        "meta_arg_of_pericenter": 45.7646,
        "meta_mean_anomaly": 314.3936,
        "meta_ephemeris_type": 0,
        "meta_classification_type": "U",
        "meta_norad_cat_id": 35946,
        "meta_element_set_no": 999,
        "meta_rev_at_epoch": 85031,
        "meta_bstar": 7.4063131e-05,
        "meta_mean_motion_dot": 1.79e-06,
        "meta_mean_motion_ddot": 0,
        "tle_line1": "1 35946U 09055A   25356.89877564  .00000179  00000+0  74063-4 0  9991",
        "tle_line2": "2 35946  98.4775  67.8439 0004817  45.7646 314.3936 14.37728388850315"
      },
      "geometry": {
        "type": "Point",
        "coordinates": [
          -110.28227883855186,
          10.390176159569291
        ]
      }
    }
  ]
}